H1 CPF  1  DGF 2022 07 13 10  6941 larets     NONE      
H2   304206 5557    27944 2022 07 13 00 00 00 2022 07 20 00 00 00    30 1 1  0 0 0
H5  0.0650
H9
10 0 59778   3600.000000  0      -6744667.910      -1968620.834       -645705.611
10 0 59778   3630.000000  0      -6735107.604      -1916154.794       -867752.730
10 0 59778   3660.000000  0      -6718459.976      -1861796.169      -1088910.323
10 0 59778   3690.000000  0      -6694734.979      -1805631.560      -1308951.859
10 0 59778   3720.000000  0      -6663950.235      -1747749.350      -1527652.043
10 0 59778   3750.000000  0      -6626131.013      -1688239.580      -1744787.053
10 0 59778   3780.000000  0      -6581310.209      -1627193.815      -1960134.774
10 0 59778   3810.000000  0      -6529528.303      -1564705.020      -2173475.035
10 0 59778   3840.000000  0      -6470833.318      -1500867.425      -2384589.838
10 0 59778   3870.000000  0      -6405280.767      -1435776.396      -2593263.585
10 0 59778   3900.000000  0      -6332933.592      -1369528.299      -2799283.307
10 0 59778   3930.000000  0      -6253862.090      -1302220.366      -3002438.883
10 0 59778   3960.000000  0      -6168143.836      -1233950.563      -3202523.255
10 0 59778   3990.000000  0      -6075863.592      -1164817.452      -3399332.648
10 0 59778   4020.000000  0      -5977113.219      -1094920.060      -3592666.769
10 0 59778   4050.000000  0      -5871991.567      -1024357.740      -3782329.022
10 0 59778   4080.000000  0      -5760604.366       -953230.041      -3968126.699
10 0 59778   4110.000000  0      -5643064.108       -881636.571      -4149871.182
10 0 59778   4140.000000  0      -5519489.919       -809676.863      -4327378.126
10 0 59778   4170.000000  0      -5390007.427       -737450.245      -4500467.647
10 0 59778   4200.000000  0      -5254748.620       -665055.709      -4668964.498
10 0 59778   4230.000000  0      -5113851.699       -592591.780      -4832698.244
10 0 59778   4260.000000  0      -4967460.928       -520156.391      -4991503.425
10 0 59778   4290.000000  0      -4815726.468       -447846.756      -5145219.722
10 0 59778   4320.000000  0      -4658804.219       -375759.245      -5293692.112
10 0 59778   4350.000000  0      -4496855.637       -303989.260      -5436771.013
10 0 59778   4380.000000  0      -4330047.567       -232631.117      -5574312.425
10 0 59778   4410.000000  0      -4158552.057       -161777.925      -5706178.071
10 0 59778   4440.000000  0      -3982546.170        -91521.471      -5832235.516
10 0 59778   4470.000000  0      -3802211.797        -21952.108      -5952358.300
10 0 59778   4500.000000  0      -3617735.458         46841.358      -6066426.045
10 0 59778   4530.000000  0      -3429308.102        114771.771      -6174324.572
10 0 59778   4560.000000  0      -3237124.913        181753.737      -6275945.996
10 0 59778   4590.000000  0      -3041385.093        247703.719      -6371188.830
10 0 59778   4620.000000  0      -2842291.664        312540.140      -6459958.077
10 0 59778   4650.000000  0      -2640051.241        376183.474      -6542165.312
10 0 59778   4680.000000  0      -2434873.824        438556.341      -6617728.767
10 0 59778   4710.000000  0      -2226972.570        499583.595      -6686573.394
10 0 59778   4740.000000  0      -2016563.576        559192.410      -6748630.931
10 0 59778   4770.000000  0      -1803865.652        617312.361      -6803839.966
10 0 59778   4800.000000  0      -1589100.098        673875.510      -6852145.979
10 0 59778   4830.000000  0      -1372490.474        728816.476      -6893501.396
10 0 59778   4860.000000  0      -1154262.370        782072.508      -6927865.622
10 0 59778   4890.000000  0       -934643.170        833583.556      -6955205.072
10 0 59778   4920.000000  0       -713861.827        883292.333      -6975493.201
10 0 59778   4950.000000  0       -492148.627        931144.375      -6988710.520
10 0 59778   4980.000000  0       -269734.953        977088.097      -6994844.611
10 0 59778   5010.000000  0        -46853.056       1021074.850      -6993890.143
10 0 59778   5040.000000  0        176264.185       1063058.963      -6985848.870
10 0 59778   5070.000000  0        399383.504       1102997.792      -6970729.640
10 0 59778   5100.000000  0        622271.489       1140851.767      -6948548.380
10 0 59778   5130.000000  0        844694.828       1176584.424      -6919328.080
10 0 59778   5160.000000  0       1066420.546       1210162.443      -6883098.763
10 0 59778   5190.000000  0       1287216.246       1241555.678      -6839897.454
10 0 59778   5220.000000  0       1506850.340       1270737.179      -6789768.144
10 0 59778   5250.000000  0       1725092.292       1297683.218      -6732761.749
10 0 59778   5280.000000  0       1941712.855       1322373.301      -6668936.067
10 0 59778   5310.000000  0       2156484.310       1344790.192      -6598355.719
10 0 59778   5340.000000  0       2369180.708       1364919.912      -6521092.084
10 0 59778   5370.000000  0       2579578.098       1382751.752      -6437223.232
10 0 59778   5400.000000  0       2787454.760       1398278.268      -6346833.842
10 0 59778   5430.000000  0       2992591.430       1411495.282      -6250015.129
10 0 59778   5460.000000  0       3194771.532       1422401.873      -6146864.760
10 0 59778   5490.000000  0       3393781.402       1431000.367      -6037486.762
10 0 59778   5520.000000  0       3589410.515       1437296.322      -5921991.424
10 0 59778   5550.000000  0       3781451.708       1441298.511      -5800495.196
10 0 59778   5580.000000  0       3969701.398       1443018.898      -5673120.578
10 0 59778   5610.000000  0       4153959.798       1442472.609      -5539996.008
10 0 59778   5640.000000  0       4334031.136       1439677.906      -5401255.738
10 0 59778   5670.000000  0       4509723.867       1434656.150      -5257039.710
10 0 59778   5700.000000  0       4680850.876       1427431.765      -5107493.415
10 0 59778   5730.000000  0       4847229.682       1418032.191      -4952767.755
10 0 59778   5760.000000  0       5008682.637       1406487.843      -4793018.897
10 0 59778   5790.000000  0       5165037.115       1392832.054      -4628408.127
10 0 59778   5820.000000  0       5316125.708       1377101.027      -4459101.690
10 0 59778   5850.000000  0       5461786.407       1359333.776      -4285270.630
10 0 59778   5880.000000  0       5601862.780       1339572.064      -4107090.623
10 0 59778   5910.000000  0       5736204.149       1317860.336      -3924741.806
10 0 59778   5940.000000  0       5864665.757       1294245.655      -3738408.599
10 0 59778   5970.000000  0       5987108.930       1268777.625      -3548279.530
10 0 59778   6000.000000  0       6103401.235       1241508.318      -3354547.042
10 0 59778   6030.000000  0       6213416.636       1212492.199      -3157407.309
10 0 59778   6060.000000  0       6317035.636       1181786.039      -2957060.036
10 0 59778   6090.000000  0       6414145.414       1149448.835      -2753708.258
10 0 59778   6120.000000  0       6504639.959       1115541.721      -2547558.139
10 0 59778   6150.000000  0       6588420.193       1080127.879      -2338818.758
10 0 59778   6180.000000  0       6665394.085       1043272.441      -2127701.903
10 0 59778   6210.000000  0       6735476.762       1005042.401      -1914421.849
10 0 59778   6240.000000  0       6798590.607        965506.506      -1699195.146
10 0 59778   6270.000000  0       6854665.351        924735.162      -1482240.394
10 0 59778   6300.000000  0       6903638.159        882800.328      -1263778.018
10 0 59778   6330.000000  0       6945453.705        839775.411      -1044030.047
10 0 59778   6360.000000  0       6980064.241        795735.159       -823219.881
10 0 59778   6390.000000  0       7007429.651        750755.555       -601572.059
10 0 59778   6420.000000  0       7027517.501        704913.703       -379312.033
10 0 59778   6450.000000  0       7040303.084        658287.723       -156665.937
10 0 59778   6480.000000  0       7045769.454        610956.635         66139.648
10 0 59778   6510.000000  0       7043907.453        563000.247        288877.927
10 0 59778   6540.000000  0       7034715.728        514499.033        511322.127
10 0 59778   6570.000000  0       7018200.738        465534.021        733245.739
10 0 59778   6600.000000  0       6994376.747        416186.672        954422.742
10 0 59778   6630.000000  0       6963265.820        366538.767       1174627.845
10 0 59778   6660.000000  0       6924897.801        316672.284       1393636.722
10 0 59778   6690.000000  0       6879310.287        266669.287       1611226.245
10 0 59778   6720.000000  0       6826548.581        216611.803       1827174.724
10 0 59778   6750.000000  0       6766665.645        166581.706       2041262.127
10 0 59778   6780.000000  0       6699722.044        116660.602       2253270.310
10 0 59778   6810.000000  0       6625785.887         66929.711       2462983.243
10 0 59778   6840.000000  0       6544932.750         17469.750       2670187.229
10 0 59778   6870.000000  0       6457245.603        -31639.183       2874671.134
10 0 59778   6900.000000  0       6362814.710        -80317.728       3076226.604
10 0 59778   6930.000000  0       6261737.528       -128487.369       3274648.276
10 0 59778   6960.000000  0       6154118.603       -176070.550       3469733.989
10 0 59778   6990.000000  0       6040069.453       -222990.775       3661284.983
10 0 59778   7020.000000  0       5919708.457       -269172.720       3849106.101
10 0 59778   7050.000000  0       5793160.729       -314542.335       4033005.999
10 0 59778   7080.000000  0       5660557.983       -359026.956       4212797.338
10 0 59778   7110.000000  0       5522038.384       -402555.405       4388296.981
10 0 59778   7140.000000  0       5377746.397       -445058.095       4559326.172
10 0 59778   7170.000000  0       5227832.633       -486467.122       4725710.718
99
